[
  {
    "OBJECT_NAME": "STARLINK-4777",
    "OBJECT_ID": "22114AF",
    "EPOCH": "2025-11-10T20:41:21.666912",
    "MEAN_MOTION": 15.08845114,
    "ECCENTRICITY": 0.0001219,
    "INCLINATION": 53.2176,
    "RA_OF_ASC_NODE": 107.4881,
    "ARG_OF_PERICENTER": 85.1458,
    "MEAN_ANOMALY": 274.9673,
    "EPHEMERIS_TYPE": 0,
    "CLASSIFICATION_TYPE": "U",
    "NORAD_CAT_ID": 53847,
    "ELEMENT_SET_NO": 999,
    "REV_AT_EPOCH": 17503,
    "BSTAR": 0.0,
    "MEAN_MOTION_DOT": -3.26e-06,
    "MEAN_MOTION_DDOT": 0.0,
    "TLE_LINE1": "1 53847U 22114AF  25314.86205633 -.00000326  00000+0 -23777-5 0  9998",
    "TLE_LINE2": "2 53847  53.2176 107.4881 0001219  85.1458 274.9673 15.08845114175037",
    "COMMENT": "Grouped by shell and plane from TLE"
  },
  {
    "OBJECT_NAME": "STARLINK-4780",
    "OBJECT_ID": "22114AG",
    "EPOCH": "2025-11-10T10:42:31.694688",
    "MEAN_MOTION": 15.0882445,
    "ECCENTRICITY": 0.0001262,
    "INCLINATION": 53.2166,
    "RA_OF_ASC_NODE": 109.1588,
    "ARG_OF_PERICENTER": 84.0157,
    "MEAN_ANOMALY": 276.0979,
    "EPHEMERIS_TYPE": 0,
    "CLASSIFICATION_TYPE": "U",
    "NORAD_CAT_ID": 53848,
    "ELEMENT_SET_NO": 999,
    "REV_AT_EPOCH": 17497,
    "BSTAR": 0.0,
    "MEAN_MOTION_DOT": -1.851e-05,
    "MEAN_MOTION_DDOT": 0.0,
    "TLE_LINE1": "1 53848U 22114AG  25314.44620017 -.00001851  00000+0 -98286-4 0  9990",
    "TLE_LINE2": "2 53848  53.2166 109.1588 0001262  84.0157 276.0979 15.08824450174976",
    "COMMENT": "Grouped by shell and plane from TLE"
  },
  {
    "OBJECT_NAME": "STARLINK-4770",
    "OBJECT_ID": "22114AH",
    "EPOCH": "2025-11-10T17:19:58.344384",
    "MEAN_MOTION": 15.08838121,
    "ECCENTRICITY": 0.0001187,
    "INCLINATION": 53.2164,
    "RA_OF_ASC_NODE": 108.0378,
    "ARG_OF_PERICENTER": 86.4451,
    "MEAN_ANOMALY": 273.6677,
    "EPHEMERIS_TYPE": 0,
    "CLASSIFICATION_TYPE": "U",
    "NORAD_CAT_ID": 53849,
    "ELEMENT_SET_NO": 999,
    "REV_AT_EPOCH": 17501,
    "BSTAR": 2.3209e-05,
    "MEAN_MOTION_DOT": 8.2e-07,
    "MEAN_MOTION_DDOT": 0.0,
    "TLE_LINE1": "1 53849U 22114AH  25314.72220306  .00000082  00000+0  23209-4 0  9995",
    "TLE_LINE2": "2 53849  53.2164 108.0378 0001187  86.4451 273.6677 15.08838121175013",
    "COMMENT": "Grouped by shell and plane from TLE"
  },
  {
    "OBJECT_NAME": "STARLINK-4767",
    "OBJECT_ID": "22114AJ",
    "EPOCH": "2025-11-11T03:55:49.566432",
    "MEAN_MOTION": 15.08841477,
    "ECCENTRICITY": 0.0001364,
    "INCLINATION": 53.2147,
    "RA_OF_ASC_NODE": 105.8204,
    "ARG_OF_PERICENTER": 88.6491,
    "MEAN_ANOMALY": 271.4658,
    "EPHEMERIS_TYPE": 0,
    "CLASSIFICATION_TYPE": "U",
    "NORAD_CAT_ID": 53850,
    "ELEMENT_SET_NO": 999,
    "REV_AT_EPOCH": 17508,
    "BSTAR": 5.046300000000001e-05,
    "MEAN_MOTION_DOT": 5.15e-06,
    "MEAN_MOTION_DDOT": 0.0,
    "TLE_LINE1": "1 53850U 22114AJ  25315.16376813  .00000515  00000+0  50463-4 0  9994",
    "TLE_LINE2": "2 53850  53.2147 105.8204 0001364  88.6491 271.4658 15.08841477175084",
    "COMMENT": "Grouped by shell and plane from TLE"
  },
  {
    "OBJECT_NAME": "STARLINK-4755",
    "OBJECT_ID": "22114AK",
    "EPOCH": "2025-11-10T10:47:49.030656",
    "MEAN_MOTION": 15.08840002,
    "ECCENTRICITY": 0.0001415,
    "INCLINATION": 53.2173,
    "RA_OF_ASC_NODE": 109.1816,
    "ARG_OF_PERICENTER": 91.9432,
    "MEAN_ANOMALY": 268.1723,
    "EPHEMERIS_TYPE": 0,
    "CLASSIFICATION_TYPE": "U",
    "NORAD_CAT_ID": 53851,
    "ELEMENT_SET_NO": 999,
    "REV_AT_EPOCH": 17497,
    "BSTAR": 5.6015000000000005e-05,
    "MEAN_MOTION_DOT": 6.04e-06,
    "MEAN_MOTION_DDOT": 0.0,
    "TLE_LINE1": "1 53851U 22114AK  25314.44987304  .00000604  00000+0  56015-4 0  9996",
    "TLE_LINE2": "2 53851  53.2173 109.1816 0001415  91.9432 268.1723 15.08840002174975",
    "COMMENT": "Grouped by shell and plane from TLE"
  },
  {
    "OBJECT_NAME": "STARLINK-4797",
    "OBJECT_ID": "22114AL",
    "EPOCH": "2025-11-11T06:11:41.314848",
    "MEAN_MOTION": 15.08861003,
    "ECCENTRICITY": 0.0001191,
    "INCLINATION": 53.2158,
    "RA_OF_ASC_NODE": 100.7113,
    "ARG_OF_PERICENTER": 81.4533,
    "MEAN_ANOMALY": 278.6594,
    "EPHEMERIS_TYPE": 0,
    "CLASSIFICATION_TYPE": "U",
    "NORAD_CAT_ID": 53852,
    "ELEMENT_SET_NO": 999,
    "REV_AT_EPOCH": 17516,
    "BSTAR": 0.00031201,
    "MEAN_MOTION_DOT": 4.684e-05,
    "MEAN_MOTION_DDOT": 0.0,
    "TLE_LINE1": "1 53852U 22114AL  25315.25811707  .00004684  00000+0  31201-3 0  9991",
    "TLE_LINE2": "2 53852  53.2158 100.7113 0001191  81.4533 278.6594 15.08861003175161",
    "COMMENT": "Grouped by shell and plane from TLE"
  },
  {
    "OBJECT_NAME": "STARLINK-4794",
    "OBJECT_ID": "22114AM",
    "EPOCH": "2025-11-10T10:37:12.086400",
    "MEAN_MOTION": 15.08843501,
    "ECCENTRICITY": 0.0001259,
    "INCLINATION": 53.2159,
    "RA_OF_ASC_NODE": 109.1355,
    "ARG_OF_PERICENTER": 91.5751,
    "MEAN_ANOMALY": 268.5385,
    "EPHEMERIS_TYPE": 0,
    "CLASSIFICATION_TYPE": "U",
    "NORAD_CAT_ID": 53853,
    "ELEMENT_SET_NO": 999,
    "REV_AT_EPOCH": 17497,
    "BSTAR": 8.3427e-05,
    "MEAN_MOTION_DOT": 1.04e-05,
    "MEAN_MOTION_DDOT": 0.0,
    "TLE_LINE1": "1 53853U 22114AM  25314.44250100  .00001040  00000+0  83427-4 0  9997",
    "TLE_LINE2": "2 53853  53.2159 109.1355 0001259  91.5751 268.5385 15.08843501174970",
    "COMMENT": "Grouped by shell and plane from TLE"
  },
  {
    "OBJECT_NAME": "STARLINK-4703",
    "OBJECT_ID": "22114AP",
    "EPOCH": "2025-11-10T10:43:53.302080",
    "MEAN_MOTION": 15.08840415,
    "ECCENTRICITY": 0.0001363,
    "INCLINATION": 53.2166,
    "RA_OF_ASC_NODE": 109.163,
    "ARG_OF_PERICENTER": 91.636,
    "MEAN_ANOMALY": 268.4788,
    "EPHEMERIS_TYPE": 0,
    "CLASSIFICATION_TYPE": "U",
    "NORAD_CAT_ID": 53855,
    "ELEMENT_SET_NO": 999,
    "REV_AT_EPOCH": 17497,
    "BSTAR": 6.5076e-05,
    "MEAN_MOTION_DOT": 7.48e-06,
    "MEAN_MOTION_DDOT": 0.0,
    "TLE_LINE1": "1 53855U 22114AP  25314.44714470  .00000748  00000+0  65076-4 0  9998",
    "TLE_LINE2": "2 53855  53.2166 109.1630 0001363  91.6360 268.4788 15.08840415174976",
    "COMMENT": "Grouped by shell and plane from TLE"
  },
  {
    "OBJECT_NAME": "STARLINK-4809",
    "OBJECT_ID": "22114AR",
    "EPOCH": "2025-11-11T03:50:31.179840",
    "MEAN_MOTION": 15.08858561,
    "ECCENTRICITY": 0.0001184,
    "INCLINATION": 53.2129,
    "RA_OF_ASC_NODE": 105.796,
    "ARG_OF_PERICENTER": 128.003,
    "MEAN_ANOMALY": 232.1069,
    "EPHEMERIS_TYPE": 0,
    "CLASSIFICATION_TYPE": "U",
    "NORAD_CAT_ID": 53857,
    "ELEMENT_SET_NO": 999,
    "REV_AT_EPOCH": 17508,
    "BSTAR": 9.7187e-05,
    "MEAN_MOTION_DOT": 1.26e-05,
    "MEAN_MOTION_DDOT": 0.0,
    "TLE_LINE1": "1 53857U 22114AR  25315.16008310  .00001260  00000+0  97187-4 0  9997",
    "TLE_LINE2": "2 53857  53.2129 105.7960 0001184 128.0030 232.1069 15.08858561175089",
    "COMMENT": "Grouped by shell and plane from TLE"
  },
  {
    "OBJECT_NAME": "STARLINK-4790",
    "OBJECT_ID": "22114AT",
    "EPOCH": "2025-11-11T02:23:45.996288",
    "MEAN_MOTION": 15.08842365,
    "ECCENTRICITY": 0.0001347,
    "INCLINATION": 53.215,
    "RA_OF_ASC_NODE": 101.1447,
    "ARG_OF_PERICENTER": 86.3453,
    "MEAN_ANOMALY": 273.7694,
    "EPHEMERIS_TYPE": 0,
    "CLASSIFICATION_TYPE": "U",
    "NORAD_CAT_ID": 53859,
    "ELEMENT_SET_NO": 999,
    "REV_AT_EPOCH": 17514,
    "BSTAR": 9.718300000000001e-05,
    "MEAN_MOTION_DOT": 1.259e-05,
    "MEAN_MOTION_DDOT": 0.0,
    "TLE_LINE1": "1 53859U 22114AT  25315.09983792  .00001259  00000+0  97183-4 0  9991",
    "TLE_LINE2": "2 53859  53.2150 101.1447 0001347  86.3453 273.7694 15.08842365175148",
    "COMMENT": "Grouped by shell and plane from TLE"
  },
  {
    "OBJECT_NAME": "STARLINK-5050",
    "OBJECT_ID": "22119E",
    "EPOCH": "2025-11-10T16:35:34.561536",
    "MEAN_MOTION": 15.08842111,
    "ECCENTRICITY": 0.0001344,
    "INCLINATION": 53.2156,
    "RA_OF_ASC_NODE": 103.1058,
    "ARG_OF_PERICENTER": 87.2187,
    "MEAN_ANOMALY": 272.8959,
    "EPHEMERIS_TYPE": 0,
    "CLASSIFICATION_TYPE": "U",
    "NORAD_CAT_ID": 53890,
    "ELEMENT_SET_NO": 999,
    "REV_AT_EPOCH": 17421,
    "BSTAR": 9.910500000000001e-05,
    "MEAN_MOTION_DOT": 1.29e-05,
    "MEAN_MOTION_DDOT": 0.0,
    "TLE_LINE1": "1 53890U 22119E   25314.69137224  .00001290  00000+0  99105-4 0  9998",
    "TLE_LINE2": "2 53890  53.2156 103.1058 0001344  87.2187 272.8959 15.08842111174210",
    "COMMENT": "Grouped by shell and plane from TLE"
  },
  {
    "OBJECT_NAME": "STARLINK-5051",
    "OBJECT_ID": "22119AG",
    "EPOCH": "2025-11-11T03:18:44.668800",
    "MEAN_MOTION": 15.08843834,
    "ECCENTRICITY": 0.0001298,
    "INCLINATION": 53.2168,
    "RA_OF_ASC_NODE": 105.974,
    "ARG_OF_PERICENTER": 89.9192,
    "MEAN_ANOMALY": 270.1949,
    "EPHEMERIS_TYPE": 0,
    "CLASSIFICATION_TYPE": "U",
    "NORAD_CAT_ID": 53916,
    "ELEMENT_SET_NO": 999,
    "REV_AT_EPOCH": 17422,
    "BSTAR": 7.8216e-05,
    "MEAN_MOTION_DOT": 9.57e-06,
    "MEAN_MOTION_DDOT": 0.0,
    "TLE_LINE1": "1 53916U 22119AG  25315.13801700  .00000957  00000+0  78216-4 0  9993",
    "TLE_LINE2": "2 53916  53.2168 105.9740 0001298  89.9192 270.1949 15.08843834174227",
    "COMMENT": "Grouped by shell and plane from TLE"
  },
  {
    "OBJECT_NAME": "STARLINK-5000",
    "OBJECT_ID": "22119BB",
    "EPOCH": "2025-11-10T16:46:11.381376",
    "MEAN_MOTION": 15.08849239,
    "ECCENTRICITY": 0.0001558,
    "INCLINATION": 53.2151,
    "RA_OF_ASC_NODE": 103.1683,
    "ARG_OF_PERICENTER": 84.8304,
    "MEAN_ANOMALY": 275.2866,
    "EPHEMERIS_TYPE": 0,
    "CLASSIFICATION_TYPE": "U",
    "NORAD_CAT_ID": 53935,
    "ELEMENT_SET_NO": 999,
    "REV_AT_EPOCH": 17421,
    "BSTAR": 0.0,
    "MEAN_MOTION_DOT": -8.22e-06,
    "MEAN_MOTION_DDOT": 0.0,
    "TLE_LINE1": "1 53935U 22119BB  25314.69874284 -.00000822  00000+0 -33548-4 0  9993",
    "TLE_LINE2": "2 53935  53.2151 103.1683 0001558  84.8304 275.2866 15.08849239174212",
    "COMMENT": "Grouped by shell and plane from TLE"
  }
]